ONEWEB-0371             
1 49297U 21090U   26024.82031634  .00000030  00000+0  41816-4 0  9990
2 49297  87.9243 333.4977 0001686  81.3728 278.7595 13.19726359207549
ONEWEB-0372             
1 49298U 21090V   26025.13251888 -.00000047  00000+0 -14696-3 0  9996
2 49298  87.9228 302.9831 0001542  72.5989 287.5313 13.20772263210957
ONEWEB-0373             
1 49299U 21090W   26024.70492841  .00000047  00000+0  82985-4 0  9990
2 49299  87.9216 303.0790 0001752  77.7534 282.3795 13.20773889212085
ONEWEB-0374             
1 49300U 21090X   26024.78892814  .00000124  00000+0  30027-3 0  9990
2 49300  87.9031 318.2792 0002178  67.7339 292.4022 13.14504790208725
ONEWEB-0375             
1 49301U 21090Y   26024.76807636  .00000027  00000+0  34945-4 0  9993
2 49301  87.9227 303.0488 0002242  75.6725 284.4657 13.20771128211598
ONEWEB-0376             
1 49302U 21090Z   26025.12199641  .00000004  00000+0 -22001-4 0  9991
2 49302  87.9249 333.4280 0001534  76.2903 283.8400 13.19726812207589
ONEWEB-0377             
1 49303U 21090AA  26025.13279641  .00000043  00000+0  73313-4 0  9996
2 49303  87.9226 302.9789 0001798  81.8483 278.2854 13.20773054211631
ONEWEB-0378             
1 49304U 21090AB  26024.47306457  .00000121  00000+0  26664-3 0  9992
2 49304  87.9222 303.1230 0001804  74.0170 286.1162 13.20774353210819
